NORAD_CAT_ID,OBJECT_NAME,OBJECT_TYPE,EPOCH,MEAN_MOTION,ECCENTRICITY,INCLINATION,RA_OF_ASC_NODE,ARG_OF_PERICENTER,MEAN_ANOMALY,BSTAR,MEAN_MOTION_DOT,MEAN_MOTION_DDOT,TLE_LINE0,TLE_LINE1,TLE_LINE2,SEMIMAJOR_AXIS,PERIOD,APOGEE,PERIGEE,DECAYED
54810.0,STARLINK-5408,PAYLOAD,2024-05-24 02:40:25,15.088514,0.0001738,53.2173,82.4021,112.2732,247.8444,0.00017267,2.462e-05,0.0,0 STARLINK-5408,1 54810U 22175BE  24145.11141099  .00002462  00000-0  17267-3 0  9997,2 54810  53.2173  82.4021 0001738 112.2732 247.8444 15.08851400 79220,6917.846,95.437,540.913,538.508,0.0
54810.0,STARLINK-5408,PAYLOAD,2024-05-24 05:51:12,15.08853499,0.0001818,53.2171,81.8054,117.8441,242.2735,0.00017862,2.557e-05,0.0,0 STARLINK-5408,1 54810U 22175BE  24145.24388908  .00002557  00000-0  17862-3 0  9999,2 54810  53.2171  81.8054 0001818 117.8441 242.2735 15.08853499 81409,6917.839,95.437,540.962,538.446,0.0
54810.0,STARLINK-5408,PAYLOAD,2024-05-24 20:09:40,15.08839348,0.000164,53.2165,79.125,108.0718,252.0452,7.8737e-05,9.65e-06,0.0,0 STARLINK-5408,1 54810U 22175BE  24145.84005665  .00000965  00000-0  78737-4 0  9991,2 54810  53.2165  79.1250 0001640 108.0718 252.0452 15.08839348 79333,6917.882,95.438,540.882,538.613,0.0
54810.0,STARLINK-5408,PAYLOAD,2024-05-25 12:03:32,15.08825107,0.0001454,53.2169,76.162,124.5452,235.5678,-0.00012793,-2.323e-05,0.0,0 STARLINK-5408,1 54810U 22175BE  24146.50246439 -.00002323  00000-0 -12793-3 0  9992,2 54810  53.2169  76.1620 0001454 124.5452 235.5678 15.08825107 79431,6917.926,95.438,540.797,538.785,0.0
54810.0,STARLINK-5408,PAYLOAD,2024-05-26 02:22:00,15.08843499,0.0001554,53.217,73.4882,108.9151,251.201,-1.2164e-05,-4.82e-06,0.0,0 STARLINK-5408,1 54810U 22175BE  24147.09861812 -.00000482  00000-0 -12164-4 0  9992,2 54810  53.2170  73.4882 0001554 108.9151 251.2010 15.08843499 79525,6917.87,95.437,540.81,538.66,0.0
54810.0,STARLINK-5408,PAYLOAD,2024-05-26 23:02:01,15.08834563,0.0001365,53.2169,69.6208,79.8829,280.2317,6.7931e-05,7.93e-06,0.0,0 STARLINK-5408,1 54810U 22175BE  24147.95974289  .00000793  00000-0  67931-4 0  9995,2 54810  53.2169  69.6208 0001365  79.8829 280.2317 15.08834563 81819,6917.897,95.438,540.706,538.818,0.0
54810.0,STARLINK-5408,PAYLOAD,2024-05-27 03:48:10,15.0884686,0.0001497,53.2163,68.7331,84.9009,275.2154,0.00024096,3.55e-05,0.0,0 STARLINK-5408,1 54810U 22175BE  24148.15845877  .00003550  00000-0  24096-3 0  9996,2 54810  53.2163  68.7331 0001497  84.9009 275.2154 15.08846860 79681,6917.859,95.437,540.76,538.689,0.0
54810.0,STARLINK-5408,PAYLOAD,2024-05-27 11:45:06,15.08843699,0.0001428,53.2167,67.2384,86.8242,273.2913,0.00015375,2.16e-05,0.0,0 STARLINK-5408,1 54810U 22175BE  24148.48965861  .00002160  00000-0  15375-3 0  9994,2 54810  53.2167  67.2384 0001428  86.8242 273.2913 15.08843699 81895,6917.869,95.437,540.722,538.746,0.0
54810.0,STARLINK-5408,PAYLOAD,2024-05-27 22:52:48,15.08847677,0.0001386,53.2165,65.1568,86.6624,273.4527,0.0001511,2.118e-05,0.0,0 STARLINK-5408,1 54810U 22175BE  24148.95333534  .00002118  00000-0  15110-3 0  9992,2 54810  53.2165  65.1568 0001386  86.6624 273.4527 15.08847677 81960,6917.857,95.437,540.681,538.763,0.0
54810.0,STARLINK-5408,PAYLOAD,2024-05-28 11:35:52,15.08859249,0.0001398,53.2166,62.7772,88.1918,271.9234,0.0002886,4.31e-05,0.0,0 STARLINK-5408,1 54810U 22175BE  24149.48324588  .00004310  00000-0  28860-3 0  9992,2 54810  53.2166  62.7772 0001398  88.1918 271.9234 15.08859249 79881,6917.822,95.436,540.654,538.719,0.0
54810.0,STARLINK-5408,PAYLOAD,2024-05-29 00:18:58,15.08842172,0.0001367,53.2159,60.3968,109.3626,250.7514,1.4052e-06,-2.66e-06,0.0,0 STARLINK-5408,1 54810U 22175BE  24150.01317508 -.00000266  00000-0  14052-5 0  9994,2 54810  53.2159  60.3968 0001367 109.3626 250.7514 15.08842172 79964,6917.874,95.437,540.684,538.793,0.0
54810.0,STARLINK-5408,PAYLOAD,2024-05-29 22:34:22,15.08847575,0.0001298,53.2156,56.2389,86.5111,273.6029,3.7918e-05,3.16e-06,0.0,0 STARLINK-5408,1 54810U 22175BE  24150.94053522  .00000316  00000-0  37918-4 0  9999,2 54810  53.2156  56.2389 0001298  86.5111 273.6029 15.08847575 82264,6917.857,95.437,540.62,538.824,0.0
54810.0,STARLINK-5408,PAYLOAD,2024-05-30 03:20:31,15.08852025,0.0001385,53.2162,55.3439,90.7646,269.3505,0.00012314,1.673e-05,0.0,0 STARLINK-5408,1 54810U 22175BE  24151.13925198  .00001673  00000-0  12314-3 0  9997,2 54810  53.2162  55.3439 0001385  90.7646 269.3505 15.08852025 80135,6917.844,95.437,540.667,538.751,0.0
54810.0,STARLINK-5408,PAYLOAD,2024-05-30 20:49:46,15.08845185,0.0001722,53.2165,52.0729,105.6557,254.4626,0.00024478,3.61e-05,0.0,0 STARLINK-5408,1 54810U 22175BE  24151.86789709  .00003610  00000-0  24478-3 0  9990,2 54810  53.2165  52.0729 0001722 105.6557 254.4626 15.08845185 80246,6917.865,95.437,540.921,538.538,0.0
54810.0,STARLINK-5408,PAYLOAD,2024-05-30 22:25:09,15.08846463,0.0001603,53.2168,51.7748,99.2272,260.8901,0.00017467,2.493e-05,0.0,0 STARLINK-5408,1 54810U 22175BE  24151.93413653  .00002493  00000-0  17467-3 0  9998,2 54810  53.2168  51.7748 0001603  99.2272 260.8901 15.08846463 82414,6917.861,95.437,540.835,538.617,0.0
54810.0,STARLINK-5408,PAYLOAD,2024-05-31 03:11:18,15.0884807,0.0001613,53.2168,50.8822,100.4911,259.6263,0.00018029,2.583e-05,0.0,0 STARLINK-5408,1 54810U 22175BE  24152.13285482  .00002583  00000-0  18029-3 0  9993,2 54810  53.2168  50.8822 0001613 100.4911 259.6263 15.08848070 82449,6917.856,95.437,540.837,538.605,0.0
54810.0,STARLINK-5408,PAYLOAD,2024-05-31 20:40:33,15.08836666,0.0001566,53.2164,47.6117,108.5258,251.5904,2.7381e-05,1.48e-06,0.0,0 STARLINK-5408,1 54810U 22175BE  24152.86150174  .00000148  00000-0  27381-4 0  9999,2 54810  53.2164  47.6117 0001566 108.5258 251.5904 15.08836666 80399,6917.891,95.438,540.839,538.672,0.0
54810.0,STARLINK-5408,PAYLOAD,2024-05-31 22:15:56,15.08837451,0.0001593,53.2167,47.3136,106.7879,253.3288,4.1198e-05,3.68e-06,0.0,0 STARLINK-5408,1 54810U 22175BE  24152.92774187  .00000368  00000-0  41198-4 0  9998,2 54810  53.2167  47.3136 0001593 106.7879 253.3288 15.08837451 82568,6917.888,95.438,540.855,538.651,0.0
54810.0,STARLINK-5408,PAYLOAD,2024-06-01 09:23:38,15.08843486,0.0001239,53.2165,45.2333,92.226,267.8873,0.00010629,1.404e-05,0.0,0 STARLINK-5408,1 54810U 22175BE  24153.39141988  .00001404  00000-0  10629-3 0  9993,2 54810  53.2165  45.2333 0001239  92.2260 267.8873 15.08843486 82635,6917.87,95.437,540.592,538.878,0.0
54810.0,STARLINK-5408,PAYLOAD,2024-06-01 23:42:07,15.08841622,0.0001446,53.218,42.5596,84.8482,275.2675,0.00019174,2.765e-05,0.0,0 STARLINK-5408,1 54810U 22175BE  24153.98758359  .00002765  00000-0  19174-3 0  9999,2 54810  53.2180  42.5596 0001446  84.8482 275.2675 15.08841622 80569,6917.875,95.437,540.741,538.74,0.0
54810.0,STARLINK-5408,PAYLOAD,2024-06-02 09:14:26,15.08839833,0.0001379,53.2173,40.776,87.2854,272.8296,0.00013777,1.905e-05,0.0,0 STARLINK-5408,1 54810U 22175BE  24154.38502424  .00001905  00000-0  13777-3 0  9992,2 54810  53.2173  40.7760 0001379  87.2854 272.8296 15.08839833 82788,6917.881,95.438,540.7,538.792,0.0
54810.0,STARLINK-5408,PAYLOAD,2024-06-03 02:43:40,15.08847341,0.0001222,53.2163,37.5016,72.08,288.0325,0.00022712,3.329e-05,0.0,0 STARLINK-5408,1 54810U 22175BE  24155.11366208  .00003329  00000-0  22712-3 0  9993,2 54810  53.2163  37.5016 0001222  72.0800 288.0325 15.08847341 80733,6917.858,95.437,540.568,538.878,0.0
54810.0,STARLINK-5408,PAYLOAD,2024-06-03 09:05:12,15.08844332,0.0001205,53.216,36.3121,79.8523,280.2605,0.00015368,2.159e-05,0.0,0 STARLINK-5408,1 54810U 22175BE  24155.37862229  .00002159  00000-0  15368-3 0  9994,2 54810  53.2160  36.3121 0001205  79.8523 280.2605 15.08844332 82938,6917.867,95.437,540.566,538.899,0.0
54810.0,STARLINK-5408,PAYLOAD,2024-06-04 08:55:59,15.08851734,0.0001497,53.2166,31.8515,74.2615,285.8542,0.00022728,3.332e-05,0.0,0 STARLINK-5408,1 54810U 22175BE  24156.37221807  .00003332  00000-0  22728-3 0  9998,2 54810  53.2166  31.8515 0001497  74.2615 285.8542 15.08851734 80927,6917.845,95.437,540.745,538.674,0.0
54810.0,STARLINK-5408,PAYLOAD,2024-06-04 21:39:04,15.08850828,0.0002097,53.2142,29.4727,78.3861,281.7366,0.00022008,3.217e-05,0.0,0 STARLINK-5408,1 54810U 22175BE  24156.90213881  .00003217  00000-0  22008-3 0  9993,2 54810  53.2142  29.4727 0002097  78.3861 281.7366 15.08850828 83165,6917.847,95.437,541.163,538.262,0.0
54810.0,STARLINK-5408,PAYLOAD,2024-06-05 00:49:51,15.08845004,0.0001498,53.2165,28.8784,79.1369,280.9791,0.000159,2.244e-05,0.0,0 STARLINK-5408,1 54810U 22175BE  24157.03462093  .00002244  00000-0  15900-3 0  9991,2 54810  53.2165  28.8784 0001498  79.1369 280.9791 15.08845004 81028,6917.865,95.437,540.766,538.694,0.0
54810.0,STARLINK-5408,PAYLOAD,2024-06-05 08:46:47,15.08835283,0.0001205,53.2174,27.3915,88.6843,271.4287,-4.2696e-05,-9.67e-06,0.0,0 STARLINK-5408,1 54810U 22175BE  24157.36582303 -.00000967  00000-0 -42696-4 0  9999,2 54810  53.2174  27.3915 0001205  88.6843 271.4287 15.08835283 81074,6917.895,95.438,540.593,538.926,0.0
54810.0,STARLINK-5408,PAYLOAD,2024-06-05 15:08:20,15.08835532,0.0002014,53.2175,26.2001,89.2609,270.8614,-1.5288e-05,-5.31e-06,0.0,0 STARLINK-5408,1 54810U 22175BE  24157.63078885 -.00000531  00000-0 -15288-4 0  9998,2 54810  53.2175  26.2001 0002014  89.2609 270.8614 15.08835532 83273,6917.894,95.438,541.152,538.366,0.0
54810.0,STARLINK-5408,PAYLOAD,2024-06-05 21:29:52,15.08838184,0.0001638,53.2147,25.0125,91.8351,268.2829,1.9441e-05,2.1e-07,0.0,0 STARLINK-5408,1 54810U 22175BE  24157.89574813  .00000021  00000-0  19441-4 0  9995,2 54810  53.2147  25.0125 0001638  91.8351 268.2829 15.08838184 83310,6917.886,95.438,540.884,538.618,0.0
54810.0,STARLINK-5408,PAYLOAD,2024-06-06 08:37:34,15.0884017,0.0001767,53.2152,22.9327,85.8495,274.2699,0.00010059,1.313e-05,0.0,0 STARLINK-5408,1 54810U 22175BE  24158.35942811  .00001313  00000-0  10059-3 0  9994,2 54810  53.2152  22.9327 0001767  85.8495 274.2699 15.08840170 83388,6917.88,95.438,540.967,538.522,0.0
